{
  "type": "FeatureCollection",
  "features": [
    {
      "type": "Feature",
      "properties": {
        "edge_id": "P001",
        "from_node": "IN02",
        "to_node": "IN01",
        "length": 180.0,
        "diameter": 0.8,
        "slope": 0.012,
        "capacity": 20.0
      },
      "geometry": {
        "type": "LineString",
        "coordinates": [
          [
            80.2707,
            13.0827
          ],
          [
            80.2757,
            13.087700000000002
          ]
        ]
      }
    },
    {
      "type": "Feature",
      "properties": {
        "edge_id": "P002",
        "from_node": "IN01",
        "to_node": "JUN1",
        "length": 140.0,
        "diameter": 1.0,
        "slope": 0.015,
        "capacity": 35.0
      },
      "geometry": {
        "type": "LineString",
        "coordinates": [
          [
            80.2707,
            13.0827
          ],
          [
            80.2757,
            13.087700000000002
          ]
        ]
      }
    },
    {
      "type": "Feature",
      "properties": {
        "edge_id": "P003",
        "from_node": "E001",
        "to_node": "JUN1",
        "length": 160.0,
        "diameter": 1.2,
        "slope": 0.01,
        "capacity": 30.0
      },
      "geometry": {
        "type": "LineString",
        "coordinates": [
          [
            80.2707,
            13.0827
          ],
          [
            80.2757,
            13.087700000000002
          ]
        ]
      }
    },
    {
      "type": "Feature",
      "properties": {
        "edge_id": "P004",
        "from_node": "JUN1",
        "to_node": "OUT1",
        "length": 320.0,
        "diameter": 1.5,
        "slope": 0.018,
        "capacity": 75.0
      },
      "geometry": {
        "type": "LineString",
        "coordinates": [
          [
            80.2707,
            13.0827
          ],
          [
            80.2757,
            13.087700000000002
          ]
        ]
      }
    }
  ]
}